[{"OBJECT_NAME":"STARLINK-30188","OBJECT_ID":"2023-105C","EPOCH":"2025-08-29T00:29:52.663488","MEAN_MOTION":15.02534753,"ECCENTRICITY":0.00010717,"INCLINATION":43.0021,"RA_OF_ASC_NODE":228.9504,"ARG_OF_PERICENTER":280.4796,"MEAN_ANOMALY":79.5926,"EPHEMERIS_TYPE":0,"CLASSIFICATION_TYPE":"U","NORAD_CAT_ID":57432,"ELEMENT_SET_NO":999,"REV_AT_EPOCH":11654,"BSTAR":8.29326e-6,"MEAN_MOTION_DOT":-9.2e-7,"MEAN_MOTION_DDOT":0},{"OBJECT_NAME":"STARLINK-30105","OBJECT_ID":"2023-105D","EPOCH":"2025-08-28T17:19:58.359072","MEAN_MOTION":15.2757156,"ECCENTRICITY":0.00015083,"INCLINATION":43.0014,"RA_OF_ASC_NODE":40.6066,"ARG_OF_PERICENTER":267.4858,"MEAN_ANOMALY":92.5821,"EPHEMERIS_TYPE":0,"CLASSIFICATION_TYPE":"U","NORAD_CAT_ID":57433,"ELEMENT_SET_NO":999,"REV_AT_EPOCH":11881,"BSTAR":-6.6851937e-5,"MEAN_MOTION_DOT":-2.101e-5,"MEAN_MOTION_DDOT":0},{"OBJECT_NAME":"STARLINK-30102","OBJECT_ID":"2023-105E","EPOCH":"2025-08-29T00:20:17.159136","MEAN_MOTION":15.02536283,"ECCENTRICITY":0.00011084,"INCLINATION":43.0017,"RA_OF_ASC_NODE":228.8955,"ARG_OF_PERICENTER":283.751,"MEAN_ANOMALY":76.3209,"EPHEMERIS_TYPE":0,"CLASSIFICATION_TYPE":"U","NORAD_CAT_ID":57434,"ELEMENT_SET_NO":999,"REV_AT_EPOCH":11652,"BSTAR":2.996036e-5,"MEAN_MOTION_DOT":2.01e-6,"MEAN_MOTION_DDOT":0},{"OBJECT_NAME":"STARLINK-30183","OBJECT_ID":"2023-105G","EPOCH":"2025-08-29T04:44:34.324800","MEAN_MOTION":15.24848671,"ECCENTRICITY":0.00198166,"INCLINATION":42.9933,"RA_OF_ASC_NODE":205.5859,"ARG_OF_PERICENTER":131.8632,"MEAN_ANOMALY":228.3913,"EPHEMERIS_TYPE":0,"CLASSIFICATION_TYPE":"U","NORAD_CAT_ID":57436,"ELEMENT_SET_NO":999,"REV_AT_EPOCH":11687,"BSTAR":0.0039501001,"MEAN_MOTION_DOT":0.00101743,"MEAN_MOTION_DDOT":0},{"OBJECT_NAME":"STARLINK-30237","OBJECT_ID":"2023-105H","EPOCH":"2025-08-29T06:28:46.773120","MEAN_MOTION":15.02563342,"ECCENTRICITY":0.00014695,"INCLINATION":43.0024,"RA_OF_ASC_NODE":227.3802,"ARG_OF_PERICENTER":283.4619,"MEAN_ANOMALY":76.6059,"EPHEMERIS_TYPE":0,"CLASSIFICATION_TYPE":"U","NORAD_CAT_ID":57437,"ELEMENT_SET_NO":999,"REV_AT_EPOCH":11661,"BSTAR":0.00025369189,"MEAN_MOTION_DOT":3.227e-5,"MEAN_MOTION_DDOT":0},{"OBJECT_NAME":"STARLINK-30158","OBJECT_ID":"2023-105J","EPOCH":"2025-08-29T06:33:36.337536","MEAN_MOTION":15.02538418,"ECCENTRICITY":0.00014425,"INCLINATION":43.0027,"RA_OF_ASC_NODE":227.4043,"ARG_OF_PERICENTER":290.1654,"MEAN_ANOMALY":69.9033,"EPHEMERIS_TYPE":0,"CLASSIFICATION_TYPE":"U","NORAD_CAT_ID":57438,"ELEMENT_SET_NO":999,"REV_AT_EPOCH":11661,"BSTAR":6.8540767e-5,"MEAN_MOTION_DOT":7.22e-6,"MEAN_MOTION_DDOT":0},{"OBJECT_NAME":"STARLINK-30159","OBJECT_ID":"2023-105L","EPOCH":"2025-08-29T00:01:07.930272","MEAN_MOTION":15.02544628,"ECCENTRICITY":3.597e-5,"INCLINATION":42.9996,"RA_OF_ASC_NODE":228.7977,"ARG_OF_PERICENTER":318.3903,"MEAN_ANOMALY":41.6912,"EPHEMERIS_TYPE":0,"CLASSIFICATION_TYPE":"U","NORAD_CAT_ID":57440,"ELEMENT_SET_NO":999,"REV_AT_EPOCH":11641,"BSTAR":0.00060419562,"MEAN_MOTION_DOT":7.969e-5,"MEAN_MOTION_DDOT":0},{"OBJECT_NAME":"STARLINK-30160","OBJECT_ID":"2023-105M","EPOCH":"2025-08-29T06:19:13.442592","MEAN_MOTION":15.02536164,"ECCENTRICITY":8.963e-5,"INCLINATION":43.0014,"RA_OF_ASC_NODE":227.329,"ARG_OF_PERICENTER":274.4135,"MEAN_ANOMALY":85.6605,"EPHEMERIS_TYPE":0,"CLASSIFICATION_TYPE":"U","NORAD_CAT_ID":57441,"ELEMENT_SET_NO":999,"REV_AT_EPOCH":11645,"BSTAR":4.0980321e-5,"MEAN_MOTION_DOT":3.5e-6,"MEAN_MOTION_DDOT":0},{"OBJECT_NAME":"STARLINK-30146","OBJECT_ID":"2023-105N","EPOCH":"2025-08-29T06:14:25.637280","MEAN_MOTION":15.02536589,"ECCENTRICITY":0.00014956,"INCLINATION":43.0027,"RA_OF_ASC_NODE":227.3041,"ARG_OF_PERICENTER":283.0277,"MEAN_ANOMALY":77.0398,"EPHEMERIS_TYPE":0,"CLASSIFICATION_TYPE":"U","NORAD_CAT_ID":57442,"ELEMENT_SET_NO":999,"REV_AT_EPOCH":11667,"BSTAR":4.5624107e-5,"MEAN_MOTION_DOT":4.13e-6,"MEAN_MOTION_DDOT":0},{"OBJECT_NAME":"STARLINK-30197","OBJECT_ID":"2023-105P","EPOCH":"2025-08-29T06:09:38.082528","MEAN_MOTION":15.02537337,"ECCENTRICITY":0.00010751,"INCLINATION":43.0017,"RA_OF_ASC_NODE":227.278,"ARG_OF_PERICENTER":282.2269,"MEAN_ANOMALY":77.8453,"EPHEMERIS_TYPE":0,"CLASSIFICATION_TYPE":"U","NORAD_CAT_ID":57443,"ELEMENT_SET_NO":999,"REV_AT_EPOCH":11661,"BSTAR":-3.0275683e-5,"MEAN_MOTION_DOT":-6.12e-6,"MEAN_MOTION_DDOT":0},{"OBJECT_NAME":"STARLINK-30181","OBJECT_ID":"2023-105Q","EPOCH":"2025-08-29T05:50:27.158496","MEAN_MOTION":15.02536306,"ECCENTRICITY":0.0001177,"INCLINATION":43.0021,"RA_OF_ASC_NODE":227.1797,"ARG_OF_PERICENTER":275.7378,"MEAN_ANOMALY":84.333,"EPHEMERIS_TYPE":0,"CLASSIFICATION_TYPE":"U","NORAD_CAT_ID":57444,"ELEMENT_SET_NO":999,"REV_AT_EPOCH":11667,"BSTAR":4.7505168e-5,"MEAN_MOTION_DOT":4.38e-6,"MEAN_MOTION_DDOT":0},{"OBJECT_NAME":"STARLINK-30215","OBJECT_ID":"2023-105R","EPOCH":"2025-08-28T07:36:39.346848","MEAN_MOTION":15.02536851,"ECCENTRICITY":7.318e-5,"INCLINATION":43.0023,"RA_OF_ASC_NODE":232.2685,"ARG_OF_PERICENTER":274.4491,"MEAN_ANOMALY":85.6267,"EPHEMERIS_TYPE":0,"CLASSIFICATION_TYPE":"U","NORAD_CAT_ID":57445,"ELEMENT_SET_NO":999,"REV_AT_EPOCH":11631,"BSTAR":3.4970662e-5,"MEAN_MOTION_DOT":2.69e-6,"MEAN_MOTION_DDOT":0},{"OBJECT_NAME":"STARLINK-30162","OBJECT_ID":"2023-105S","EPOCH":"2025-08-29T05:46:04.813536","MEAN_MOTION":15.02536005,"ECCENTRICITY":6.644e-5,"INCLINATION":43.0002,"RA_OF_ASC_NODE":214.4208,"ARG_OF_PERICENTER":270.3756,"MEAN_ANOMALY":89.701,"EPHEMERIS_TYPE":0,"CLASSIFICATION_TYPE":"U","NORAD_CAT_ID":57446,"ELEMENT_SET_NO":999,"REV_AT_EPOCH":11676,"BSTAR":6.4653421e-5,"MEAN_MOTION_DOT":6.7e-6,"MEAN_MOTION_DDOT":0},{"OBJECT_NAME":"STARLINK-30178","OBJECT_ID":"2023-105T","EPOCH":"2025-08-29T05:55:14.929248","MEAN_MOTION":15.02538123,"ECCENTRICITY":9.887e-5,"INCLINATION":43.0013,"RA_OF_ASC_NODE":227.2046,"ARG_OF_PERICENTER":277.3891,"MEAN_ANOMALY":82.6839,"EPHEMERIS_TYPE":0,"CLASSIFICATION_TYPE":"U","NORAD_CAT_ID":57447,"ELEMENT_SET_NO":999,"REV_AT_EPOCH":11661,"BSTAR":-2.176056e-6,"MEAN_MOTION_DOT":-2.33e-6,"MEAN_MOTION_DDOT":0},{"OBJECT_NAME":"STARLINK-30196","OBJECT_ID":"2023-105U","EPOCH":"2025-08-29T05:40:51.947904","MEAN_MOTION":15.02533926,"ECCENTRICITY":0.00012885,"INCLINATION":43.0026,"RA_OF_ASC_NODE":227.1285,"ARG_OF_PERICENTER":277.305,"MEAN_ANOMALY":82.7646,"EPHEMERIS_TYPE":0,"CLASSIFICATION_TYPE":"U","NORAD_CAT_ID":57448,"ELEMENT_SET_NO":999,"REV_AT_EPOCH":11645,"BSTAR":7.05592e-6,"MEAN_MOTION_DOT":-1.08e-6,"MEAN_MOTION_DDOT":0},{"OBJECT_NAME":"STARLINK-30225","OBJECT_ID":"2023-105V","EPOCH":"2025-08-29T05:36:04.195296","MEAN_MOTION":15.02535954,"ECCENTRICITY":0.00013213,"INCLINATION":43.0025,"RA_OF_ASC_NODE":227.1018,"ARG_OF_PERICENTER":278.4325,"MEAN_ANOMALY":81.6367,"EPHEMERIS_TYPE":0,"CLASSIFICATION_TYPE":"U","NORAD_CAT_ID":57449,"ELEMENT_SET_NO":999,"REV_AT_EPOCH":11667,"BSTAR":3.0603052e-5,"MEAN_MOTION_DOT":2.1e-6,"MEAN_MOTION_DDOT":0}]
