STARLINK-30188          
1 57432U 23105C   25241.02074842 -.00000092  00000+0  82933-5 0  9994
2 57432  43.0021 228.9504 0001071 280.4796  79.5926 15.02534753116548
STARLINK-30105          
1 57433U 23105D   25240.72220323 -.00002101  00000+0 -66852-4 0  9993
2 57433  43.0014  40.6066 0001508 267.4858  92.5821 15.27571560118817
STARLINK-30102          
1 57434U 23105E   25241.01408749  .00000201  00000+0  29960-4 0  9993
2 57434  43.0017 228.8955 0001108 283.7510  76.3209 15.02536283116522
STARLINK-30183          
1 57436U 23105G   25241.19761950  .00101743  00000+0  39501-2 0  9993
2 57436  42.9933 205.5859 0019816 131.8632 228.3913 15.24848671116877
STARLINK-30237          
1 57437U 23105H   25241.26998580  .00003227  00000+0  25369-3 0  9999
2 57437  43.0024 227.3802 0001469 283.4619  76.6059 15.02563342116617
STARLINK-30158          
1 57438U 23105J   25241.27333724  .00000722  00000+0  68541-4 0  9991
2 57438  43.0027 227.4043 0001442 290.1654  69.9033 15.02538418116617
STARLINK-30159          
1 57440U 23105L   25241.00078623  .00007969  00000+0  60420-3 0  9996
2 57440  42.9996 228.7977 0000359 318.3903  41.6912 15.02544628116410
STARLINK-30160          
1 57441U 23105M   25241.26335003  .00000350  00000+0  40980-4 0  9990
2 57441  43.0014 227.3290 0000896 274.4135  85.6605 15.02536164116459
STARLINK-30146          
1 57442U 23105N   25241.26001895  .00000413  00000+0  45624-4 0  9990
2 57442  43.0027 227.3041 0001495 283.0277  77.0398 15.02536589116676
STARLINK-30197          
1 57443U 23105P   25241.25669077 -.00000612  00000+0 -30276-4 0  9992
2 57443  43.0017 227.2780 0001075 282.2269  77.8453 15.02537337116617
STARLINK-30181          
1 57444U 23105Q   25241.24336989  .00000438  00000+0  47505-4 0  9992
2 57444  43.0021 227.1797 0001177 275.7378  84.3330 15.02536306116679
STARLINK-30215          
1 57445U 23105R   25240.31712207  .00000269  00000+0  34971-4 0  9996
2 57445  43.0023 232.2685 0000731 274.4491  85.6267 15.02536851116311
STARLINK-30162          
1 57446U 23105S   25241.24033349  .00000670  00000+0  64653-4 0  9999
2 57446  43.0002 214.4208 0000664 270.3756  89.7010 15.02536005116767
STARLINK-30178          
1 57447U 23105T   25241.24670057 -.00000233  00000+0 -21761-5 0  9994
2 57447  43.0013 227.2046 0000988 277.3891  82.6839 15.02538123116616
STARLINK-30196          
1 57448U 23105U   25241.23671236 -.00000108  00000+0  70559-5 0  9993
2 57448  43.0026 227.1285 0001288 277.3050  82.7646 15.02533926116451
STARLINK-30225          
1 57449U 23105V   25241.23338189  .00000210  00000+0  30603-4 0  9999
2 57449  43.0025 227.1018 0001321 278.4325  81.6367 15.02535954116675
